{"type": "FeatureCollection", "features": [ {"type": "Feature", "properties": {"norad_id": 66957, "name": "HULIANWANG DIGUI-118", "group": "last-30-days", "lat": -43.220963262559394, "lon": 166.94879549935598, "alt_km": 1010.2876291477942, "timestamp": "2025-12-19T14:48:34.966615+00:00", "meta": {"OBJECT_NAME": "HULIANWANG DIGUI-118", "OBJECT_ID": "2025-287E", "EPOCH": "2025-12-18T14:53:59.369856", "MEAN_MOTION": 13.67900054, "ECCENTRICITY": 0.00077413, "INCLINATION": 86.4947, "RA_OF_ASC_NODE": 344.0095, "ARG_OF_PERICENTER": 174.0723, "MEAN_ANOMALY": 186.0529, "EPHEMERIS_TYPE": 0, "CLASSIFICATION_TYPE": "U", "NORAD_CAT_ID": 66957, "ELEMENT_SET_NO": 999, "REV_AT_EPOCH": 133, "BSTAR": 0.00014230709, "MEAN_MOTION_DOT": 1.37e-06, "MEAN_MOTION_DDOT": 0}, "tle": {"line1": "1 66957U 25287E   25352.62082604  .00000137  00000+0  14231-3 0  9996", "line2": "2 66957  86.4947 344.0095 0007741 174.0723 186.0529 13.67900054  1334"}}, "geometry": {"type": "Point", "coordinates": [166.94879549935598, -43.220963262559394]}}, {"type": "Feature", "properties": {"norad_id": 66958, "name": "CZ-6A R/B", "group": "last-30-days", "lat": 37.94004829545784, "lon": 160.7560730596557, "alt_km": 869.4477658023052, "timestamp": "2025-12-19T14:48:34.966625+00:00", "meta": {"OBJECT_NAME": "CZ-6A R/B", "OBJECT_ID": "2025-287F", "EPOCH": "2025-12-19T07:15:22.823136", "MEAN_MOTION": 13.94920728, "ECCENTRICITY": 0.01073108, "INCLINATION": 86.506, "RA_OF_ASC_NODE": 343.6057, "ARG_OF_PERICENTER": 82.4261, "MEAN_ANOMALY": 278.9087, "EPHEMERIS_TYPE": 0, "CLASSIFICATION_TYPE": "U", "NORAD_CAT_ID": 66958, "ELEMENT_SET_NO": 999, "REV_AT_EPOCH": 145, "BSTAR": 3.5334973e-05, "MEAN_MOTION_DOT": 6.9e-07, "MEAN_MOTION_DDOT": 0}, "tle": {"line1": "1 66958U 25287F   25353.30234749  .00000069  00000+0  35335-4 0  9995", "line2": "2 66958  86.5060 343.6057 0107310  82.4261 278.9087 13.94920728  1450"}}, "geometry": {"type": "Point", "coordinates": [160.7560730596557, 37.94004829545784]}}, {"type": "Feature", "properties": {"norad_id": 66959, "name": "STARLINK-35887", "group": "last-30-days", "lat": -8.450597240375584, "lon": 115.8888838501572, "alt_km": 321.53997118828283, "timestamp": "2025-12-19T14:48:34.966636+00:00", "meta": {"OBJECT_NAME": "STARLINK-35887", "OBJECT_ID": "2025-288A", "EPOCH": "2025-12-19T00:00:02.000160", "MEAN_MOTION": 15.84854291, "ECCENTRICITY": 0.00018158, "INCLINATION": 43.0013, "RA_OF_ASC_NODE": 128.8571, "ARG_OF_PERICENTER": 281.1813, "MEAN_ANOMALY": 143.3932, "EPHEMERIS_TYPE": 0, "CLASSIFICATION_TYPE": "U", "NORAD_CAT_ID": 66959, "ELEMENT_SET_NO": 999, "REV_AT_EPOCH": 283, "BSTAR": -0.0057598344, "MEAN_MOTION_DOT": -0.01232263, "MEAN_MOTION_DDOT": 0}, "tle": {"line1": "1 66959U 25288A   25353.00002315 -.01232263  00000+0 -57598-2 0  9995", "line2": "2 66959  43.0013 128.8571 0001815 281.1813 143.3932 15.84854291  2834"}}, "geometry": {"type": "Point", "coordinates": [115.8888838501572, -8.450597240375584]}}, {"type": "Feature", "properties": {"norad_id": 66960, "name": "STARLINK-35879", "group": "last-30-days", "lat": -7.149109156579447, "lon": 117.32229545605733, "alt_km": 321.3990026125002, "timestamp": "2025-12-19T14:48:34.966646+00:00", "meta": {"OBJECT_NAME": "STARLINK-35879", "OBJECT_ID": "2025-288B", "EPOCH": "2025-12-19T00:00:02.000160", "MEAN_MOTION": 15.84882136, "ECCENTRICITY": 0.00018436, "INCLINATION": 43.0012, "RA_OF_ASC_NODE": 128.8521, "ARG_OF_PERICENTER": 280.0289, "MEAN_ANOMALY": 146.4207, "EPHEMERIS_TYPE": 0, "CLASSIFICATION_TYPE": "U", "NORAD_CAT_ID": 66960, "ELEMENT_SET_NO": 999, "REV_AT_EPOCH": 283, "BSTAR": -0.0057765684, "MEAN_MOTION_DOT": -0.01236945, "MEAN_MOTION_DDOT": 0}, "tle": {"line1": "1 66960U 25288B   25353.00002315 -.01236945  00000+0 -57766-2 0  9995", "line2": "2 66960  43.0012 128.8521 0001843 280.0289 146.4207 15.84882136  2834"}}, "geometry": {"type": "Point", "coordinates": [117.32229545605733, -7.149109156579447]}}, {"type": "Feature", "properties": {"norad_id": 66961, "name": "STARLINK-35761", "group": "last-30-days", "lat": -5.746975711439894, "lon": 118.8526335484969, "alt_km": 321.27743509815264, "timestamp": "2025-12-19T14:48:34.966659+00:00", "meta": {"OBJECT_NAME": "STARLINK-35761", "OBJECT_ID": "2025-288C", "EPOCH": "2025-12-19T00:00:02.000160", "MEAN_MOTION": 15.84910694, "ECCENTRICITY": 0.00017935, "INCLINATION": 43.0012, "RA_OF_ASC_NODE": 128.8472, "ARG_OF_PERICENTER": 280.1521, "MEAN_ANOMALY": 148.332, "EPHEMERIS_TYPE": 0, "CLASSIFICATION_TYPE": "U", "NORAD_CAT_ID": 66961, "ELEMENT_SET_NO": 999, "REV_AT_EPOCH": 283, "BSTAR": -0.0058502859, "MEAN_MOTION_DOT": -0.01252435, "MEAN_MOTION_DDOT": 0}, "tle": {"line1": "1 66961U 25288C   25353.00002315 -.01252435  00000+0 -58503-2 0  9998", "line2": "2 66961  43.0012 128.8472 0001793 280.1521 148.3320 15.84910694  2832"}}, "geometry": {"type": "Point", "coordinates": [118.8526335484969, -5.746975711439894]}}, {"type": "Feature", "properties": {"norad_id": 66962, "name": "STARLINK-35874", "group": "last-30-days", "lat": -3.9459169919217763, "lon": 120.80091205248667, "alt_km": 321.21750694280036, "timestamp": "2025-12-19T14:48:34.966670+00:00", "meta": {"OBJECT_NAME": "STARLINK-35874", "OBJECT_ID": "2025-288D", "EPOCH": "2025-12-19T00:00:02.000160", "MEAN_MOTION": 15.84921869, "ECCENTRICITY": 0.00018728, "INCLINATION": 43.0012, "RA_OF_ASC_NODE": 128.8404, "ARG_OF_PERICENTER": 279.3952, "MEAN_ANOMALY": 151.7655, "EPHEMERIS_TYPE": 0, "CLASSIFICATION_TYPE": "U", "NORAD_CAT_ID": 66962, "ELEMENT_SET_NO": 999, "REV_AT_EPOCH": 283, "BSTAR": -0.006005805, "MEAN_MOTION_DOT": -0.01282484, "MEAN_MOTION_DDOT": 0}, "tle": {"line1": "1 66962U 25288D   25353.00002315 -.01282484  00000+0 -60058-2 0  9994", "line2": "2 66962  43.0012 128.8404 0001872 279.3952 151.7655 15.84921869  2839"}}, "geometry": {"type": "Point", "coordinates": [120.80091205248667, -3.9459169919217763]}}, {"type": "Feature", "properties": {"norad_id": 66963, "name": "STARLINK-36133", "group": "last-30-days", "lat": -2.518148547379306, "lon": 122.33575444847895, "alt_km": 321.1312071276625, "timestamp": "2025-12-19T14:48:34.966682+00:00", "meta": {"OBJECT_NAME": "STARLINK-36133", "OBJECT_ID": "2025-288E", "EPOCH": "2025-12-19T00:00:02.000160", "MEAN_MOTION": 15.84951248, "ECCENTRICITY": 0.00017866, "INCLINATION": 43.0012, "RA_OF_ASC_NODE": 128.8353, "ARG_OF_PERICENTER": 279.2681, "MEAN_ANOMALY": 153.9657, "EPHEMERIS_TYPE": 0, "CLASSIFICATION_TYPE": "U", "NORAD_CAT_ID": 66963, "ELEMENT_SET_NO": 999, "REV_AT_EPOCH": 283, "BSTAR": -0.0061239178, "MEAN_MOTION_DOT": -0.01306262, "MEAN_MOTION_DDOT": 0}, "tle": {"line1": "1 66963U 25288E   25353.00002315 -.01306262  00000+0 -61239-2 0  9998", "line2": "2 66963  43.0012 128.8353 0001786 279.2681 153.9657 15.84951248  2835"}}, "geometry": {"type": "Point", "coordinates": [122.33575444847895, -2.518148547379306]}}, {"type": "Feature", "properties": {"norad_id": 66964, "name": "STARLINK-36104", "group": "last-30-days", "lat": -1.0461574779552592, "lon": 123.91239955728695, "alt_km": 320.9866520662081, "timestamp": "2025-12-19T14:48:34.966692+00:00", "meta": {"OBJECT_NAME": "STARLINK-36104", "OBJECT_ID": "2025-288F", "EPOCH": "2025-12-19T00:00:02.000160", "MEAN_MOTION": 15.84976827, "ECCENTRICITY": 0.00018169, "INCLINATION": 43.0014, "RA_OF_ASC_NODE": 128.8298, "ARG_OF_PERICENTER": 280.3292, "MEAN_ANOMALY": 155.0471, "EPHEMERIS_TYPE": 0, "CLASSIFICATION_TYPE": "U", "NORAD_CAT_ID": 66964, "ELEMENT_SET_NO": 999, "REV_AT_EPOCH": 283, "BSTAR": -0.0062425229, "MEAN_MOTION_DOT": -0.01329933, "MEAN_MOTION_DDOT": 0}, "tle": {"line1": "1 66964U 25288F   25353.00002315 -.01329933  00000+0 -62425-2 0  9997", "line2": "2 66964  43.0014 128.8298 0001816 280.3292 155.0471 15.84976827  2838"}}, "geometry": {"type": "Point", "coordinates": [123.91239955728695, -1.0461574779552592]}}, {"type": "Feature", "properties": {"norad_id": 66965, "name": "STARLINK-36067", "group": "last-30-days", "lat": 0.4235559122768426, "lon": 125.48424364718694, "alt_km": 320.8768863497744, "timestamp": "2025-12-19T14:48:34.966702+00:00", "meta": {"OBJECT_NAME": "STARLINK-36067", "OBJECT_ID": "2025-288G", "EPOCH": "2025-12-19T00:00:02.000160", "MEAN_MOTION": 15.84996207, "ECCENTRICITY": 0.00017426, "INCLINATION": 43.0014, "RA_OF_ASC_NODE": 128.8243, "ARG_OF_PERICENTER": 280.6954, "MEAN_ANOMALY": 156.8259, "EPHEMERIS_TYPE": 0, "CLASSIFICATION_TYPE": "U", "NORAD_CAT_ID": 66965, "ELEMENT_SET_NO": 999, "REV_AT_EPOCH": 283, "BSTAR": -0.0063382834, "MEAN_MOTION_DOT": -0.01348846, "MEAN_MOTION_DDOT": 0}, "tle": {"line1": "1 66965U 25288G   25353.00002315 -.01348846  00000+0 -63383-2 0  9996", "line2": "2 66965  43.0014 128.8243 0001742 280.6954 156.8259 15.84996207  2832"}}, "geometry": {"type": "Point", "coordinates": [125.48424364718694, 0.4235559122768426]}}, {"type": "Feature", "properties": {"norad_id": 66966, "name": "STARLINK-36139", "group": "last-30-days", "lat": 2.162140389418609, "lon": 127.34515393254058, "alt_km": 320.8002976233083, "timestamp": "2025-12-19T14:48:34.966712+00:00", "meta": {"OBJECT_NAME": "STARLINK-36139", "OBJECT_ID": "2025-288H", "EPOCH": "2025-12-19T00:00:02.000160", "MEAN_MOTION": 15.84996151, "ECCENTRICITY": 0.00017231, "INCLINATION": 43.0013, "RA_OF_ASC_NODE": 128.8177, "ARG_OF_PERICENTER": 280.8021, "MEAN_ANOMALY": 159.3069, "EPHEMERIS_TYPE": 0, "CLASSIFICATION_TYPE": "U", "NORAD_CAT_ID": 66966, "ELEMENT_SET_NO": 999, "REV_AT_EPOCH": 283, "BSTAR": -0.006456443, "MEAN_MOTION_DOT": -0.01370764, "MEAN_MOTION_DDOT": 0}, "tle": {"line1": "1 66966U 25288H   25353.00002315 -.01370764  00000+0 -64564-2 0  9993", "line2": "2 66966  43.0013 128.8177 0001723 280.8021 159.3069 15.84996151  2839"}}, "geometry": {"type": "Point", "coordinates": [127.34515393254058, 2.162140389418609]}}]}